[{"OBJECT_NAME":"OBJECT V","OBJECT_ID":"2023-085V","EPOCH":"2026-03-09T21:44:00.165408","MEAN_MOTION":15.30745852,"ECCENTRICITY":0.00069081,"INCLINATION":97.4843,"RA_OF_ASC_NODE":179.3833,"ARG_OF_PERICENTER":71.0503,"MEAN_ANOMALY":289.1485,"EPHEMERIS_TYPE":0,"CLASSIFICATION_TYPE":"U","NORAD_CAT_ID":57023,"ELEMENT_SET_NO":999,"REV_AT_EPOCH":15149,"BSTAR":0.00067780507,"MEAN_MOTION_DOT":0.00020109,"MEAN_MOTION_DDOT":0},{"OBJECT_NAME":"STARLINK-32167","OBJECT_ID":"2024-131P","EPOCH":"2026-03-09T22:54:32.915232","MEAN_MOTION":15.30188019,"ECCENTRICITY":0.00012327,"INCLINATION":53.1616,"RA_OF_ASC_NODE":50.8918,"ARG_OF_PERICENTER":93.6663,"MEAN_ANOMALY":266.4478,"EPHEMERIS_TYPE":0,"CLASSIFICATION_TYPE":"U","NORAD_CAT_ID":60268,"ELEMENT_SET_NO":999,"REV_AT_EPOCH":9176,"BSTAR":4.4696579e-5,"MEAN_MOTION_DOT":9.64e-6,"MEAN_MOTION_DDOT":0}]
